[{"OBJECT_NAME":"STARLINK-34933","OBJECT_ID":"2025-179U","EPOCH":"2026-03-09T16:18:19.188864","MEAN_MOTION":15.05661498,"ECCENTRICITY":8.946e-5,"INCLINATION":97.603,"RA_OF_ASC_NODE":112.9057,"ARG_OF_PERICENTER":125.2726,"MEAN_ANOMALY":234.8585,"EPHEMERIS_TYPE":0,"CLASSIFICATION_TYPE":"U","NORAD_CAT_ID":65253,"ELEMENT_SET_NO":999,"REV_AT_EPOCH":3181,"BSTAR":0.00098826717,"MEAN_MOTION_DOT":0.00014232,"MEAN_MOTION_DDOT":0},{"OBJECT_NAME":"MINOTAUR 4 DEB","OBJECT_ID":"2020-046AB","EPOCH":"2026-03-09T21:53:22.840224","MEAN_MOTION":15.04149387,"ECCENTRICITY":0.00103054,"INCLINATION":53.9803,"RA_OF_ASC_NODE":316.6393,"ARG_OF_PERICENTER":80.1776,"MEAN_ANOMALY":280.0387,"EPHEMERIS_TYPE":0,"CLASSIFICATION_TYPE":"U","NORAD_CAT_ID":52037,"ELEMENT_SET_NO":999,"REV_AT_EPOCH":22693,"BSTAR":0.00012711185,"MEAN_MOTION_DOT":1.507e-5,"MEAN_MOTION_DDOT":0}]
